[{"OBJECT_NAME":"STARLINK-35758","OBJECT_ID":"2025-244Z","EPOCH":"2026-03-09T16:54:58.286592","MEAN_MOTION":15.30203217,"ECCENTRICITY":9.365e-5,"INCLINATION":53.16,"RA_OF_ASC_NODE":229.7065,"ARG_OF_PERICENTER":80.3876,"MEAN_ANOMALY":279.7231,"EPHEMERIS_TYPE":0,"CLASSIFICATION_TYPE":"U","NORAD_CAT_ID":66229,"ELEMENT_SET_NO":999,"REV_AT_EPOCH":2166,"BSTAR":0.00059310301,"MEAN_MOTION_DOT":0.00017249,"MEAN_MOTION_DDOT":0},{"OBJECT_NAME":"TRANSPORTER-1 OBJECT AA","OBJECT_ID":"2021-006AA","EPOCH":"2026-03-09T22:58:14.761920","MEAN_MOTION":15.29982294,"ECCENTRICITY":0.00086604,"INCLINATION":97.2381,"RA_OF_ASC_NODE":112.457,"ARG_OF_PERICENTER":185.709,"MEAN_ANOMALY":174.4054,"EPHEMERIS_TYPE":0,"CLASSIFICATION_TYPE":"U","NORAD_CAT_ID":47437,"ELEMENT_SET_NO":999,"REV_AT_EPOCH":28414,"BSTAR":0.0002197941,"MEAN_MOTION_DOT":6.312e-5,"MEAN_MOTION_DDOT":0}]
